{"type": "FeatureCollection", "features": [ {"type": "Feature", "properties": {"norad_id": 30295, "name": "FENGYUN 1C DEB", "group": "fengyun-1c-debris", "lat": 72.40515800186921, "lon": -134.69298353964467, "alt_km": 754.4753648525102, "timestamp": "2025-12-20T22:39:10.901768+00:00", "meta": {"OBJECT_NAME": "FENGYUN 1C DEB", "OBJECT_ID": "1999-025ZG", "EPOCH": "2025-12-20T07:36:33.291072", "MEAN_MOTION": 14.25049793, "ECCENTRICITY": 0.00943443, "INCLINATION": 98.5076, "RA_OF_ASC_NODE": 16.5347, "ARG_OF_PERICENTER": 60.582, "MEAN_ANOMALY": 70.1732, "EPHEMERIS_TYPE": 0, "CLASSIFICATION_TYPE": "U", "NORAD_CAT_ID": 30295, "ELEMENT_SET_NO": 999, "REV_AT_EPOCH": 98284, "BSTAR": 0.0001249227, "MEAN_MOTION_DOT": 2.65e-06, "MEAN_MOTION_DDOT": 0}, "tle": {"line1": "1 30295U 99025ZG  25354.31705198  .00000265  00000+0  12492-3 0  9990", "line2": "2 30295  98.5076  16.5347 0094344  60.5820  70.1732 14.25049793982842"}}, "geometry": {"type": "Point", "coordinates": [-134.69298353964467, 72.40515800186921]}}, {"type": "Feature", "properties": {"norad_id": 30297, "name": "FENGYUN 1C DEB", "group": "fengyun-1c-debris", "lat": -51.10197688459451, "lon": -42.405726700993505, "alt_km": 1042.9101794580238, "timestamp": "2025-12-20T22:39:10.901777+00:00", "meta": {"OBJECT_NAME": "FENGYUN 1C DEB", "OBJECT_ID": "1999-025ZJ", "EPOCH": "2025-12-20T15:15:14.211360", "MEAN_MOTION": 14.21874474, "ECCENTRICITY": 0.03798124, "INCLINATION": 98.8127, "RA_OF_ASC_NODE": 306.2, "ARG_OF_PERICENTER": 92.8439, "MEAN_ANOMALY": 80.7072, "EPHEMERIS_TYPE": 0, "CLASSIFICATION_TYPE": "U", "NORAD_CAT_ID": 30297, "ELEMENT_SET_NO": 999, "REV_AT_EPOCH": 95264, "BSTAR": 0.0008500975, "MEAN_MOTION_DOT": 3.882e-05, "MEAN_MOTION_DDOT": 0}, "tle": {"line1": "1 30297U 99025ZJ  25354.63558115  .00003882  00000+0  85010-3 0  9996", "line2": "2 30297  98.8127 306.2000 0379812  92.8439  80.7072 14.21874474952646"}}, "geometry": {"type": "Point", "coordinates": [-42.405726700993505, -51.10197688459451]}}, {"type": "Feature", "properties": {"norad_id": 30298, "name": "FENGYUN 1C DEB", "group": "fengyun-1c-debris", "lat": -40.44574986329489, "lon": 93.78821191350025, "alt_km": 860.384105358863, "timestamp": "2025-12-20T22:39:10.901785+00:00", "meta": {"OBJECT_NAME": "FENGYUN 1C DEB", "OBJECT_ID": "1999-025ZK", "EPOCH": "2025-12-20T04:30:55.924992", "MEAN_MOTION": 14.19989788, "ECCENTRICITY": 0.00478196, "INCLINATION": 99.002, "RA_OF_ASC_NODE": 85.2536, "ARG_OF_PERICENTER": 107.2659, "MEAN_ANOMALY": 310.9707, "EPHEMERIS_TYPE": 0, "CLASSIFICATION_TYPE": "U", "NORAD_CAT_ID": 30298, "ELEMENT_SET_NO": 999, "REV_AT_EPOCH": 96940, "BSTAR": 0.0012765287, "MEAN_MOTION_DOT": 2.701e-05, "MEAN_MOTION_DDOT": 0}, "tle": {"line1": "1 30298U 99025ZK  25354.18814728  .00002701  00000+0  12765-2 0  9997", "line2": "2 30298  99.0020  85.2536 0047819 107.2659 310.9707 14.19989788969401"}}, "geometry": {"type": "Point", "coordinates": [93.78821191350025, -40.44574986329489]}}, {"type": "Feature", "properties": {"norad_id": 30299, "name": "FENGYUN 1C DEB", "group": "fengyun-1c-debris", "lat": 1.1261735294348494, "lon": -112.58796199060212, "alt_km": 942.1150305003503, "timestamp": "2025-12-20T22:39:10.901794+00:00", "meta": {"OBJECT_NAME": "FENGYUN 1C DEB", "OBJECT_ID": "1999-025ZL", "EPOCH": "2025-12-19T15:50:16.539360", "MEAN_MOTION": 14.07780518, "ECCENTRICITY": 0.0103085, "INCLINATION": 99.094, "RA_OF_ASC_NODE": 65.9389, "ARG_OF_PERICENTER": 348.2825, "MEAN_ANOMALY": 167.1862, "EPHEMERIS_TYPE": 0, "CLASSIFICATION_TYPE": "U", "NORAD_CAT_ID": 30299, "ELEMENT_SET_NO": 999, "REV_AT_EPOCH": 96387, "BSTAR": 0.0011713054, "MEAN_MOTION_DOT": 2.037e-05, "MEAN_MOTION_DDOT": 0}, "tle": {"line1": "1 30299U 99025ZL  25353.65991365  .00002037  00000+0  11713-2 0  9996", "line2": "2 30299  99.0940  65.9389 0103085 348.2825 167.1862 14.07780518963870"}}, "geometry": {"type": "Point", "coordinates": [-112.58796199060212, 1.1261735294348494]}}, {"type": "Feature", "properties": {"norad_id": 30300, "name": "FENGYUN 1C DEB", "group": "fengyun-1c-debris", "lat": -14.47488927114862, "lon": -117.80110665324148, "alt_km": 792.9341101018872, "timestamp": "2025-12-20T22:39:10.901803+00:00", "meta": {"OBJECT_NAME": "FENGYUN 1C DEB", "OBJECT_ID": "1999-025ZM", "EPOCH": "2025-12-19T03:48:05.188896", "MEAN_MOTION": 14.26899681, "ECCENTRICITY": 0.00756002, "INCLINATION": 99.0404, "RA_OF_ASC_NODE": 62.7103, "ARG_OF_PERICENTER": 275.4697, "MEAN_ANOMALY": 113.2793, "EPHEMERIS_TYPE": 0, "CLASSIFICATION_TYPE": "U", "NORAD_CAT_ID": 30300, "ELEMENT_SET_NO": 999, "REV_AT_EPOCH": 97076, "BSTAR": 0.0016293339, "MEAN_MOTION_DOT": 4.032e-05, "MEAN_MOTION_DDOT": 0}, "tle": {"line1": "1 30300U 99025ZM  25353.15839339  .00004032  00000+0  16293-2 0  9991", "line2": "2 30300  99.0404  62.7103 0075600 275.4697 113.2793 14.26899681970760"}}, "geometry": {"type": "Point", "coordinates": [-117.80110665324148, -14.47488927114862]}}, {"type": "Feature", "properties": {"norad_id": 30301, "name": "FENGYUN 1C DEB", "group": "fengyun-1c-debris", "lat": 48.05900563493458, "lon": 136.57326196411265, "alt_km": 750.5011207286143, "timestamp": "2025-12-20T22:39:10.901812+00:00", "meta": {"OBJECT_NAME": "FENGYUN 1C DEB", "OBJECT_ID": "1999-025ZN", "EPOCH": "2025-12-19T15:39:00.595872", "MEAN_MOTION": 14.5320034, "ECCENTRICITY": 0.00691998, "INCLINATION": 98.6346, "RA_OF_ASC_NODE": 144.9792, "ARG_OF_PERICENTER": 268.5803, "MEAN_ANOMALY": 225.6832, "EPHEMERIS_TYPE": 0, "CLASSIFICATION_TYPE": "U", "NORAD_CAT_ID": 30301, "ELEMENT_SET_NO": 999, "REV_AT_EPOCH": 97317, "BSTAR": 0.0027328574, "MEAN_MOTION_DOT": 0.00011654, "MEAN_MOTION_DDOT": 0}, "tle": {"line1": "1 30301U 99025ZN  25353.65209023  .00011654  00000+0  27329-2 0  9998", "line2": "2 30301  98.6346 144.9792 0069199 268.5803 225.6832 14.53200340973174"}}, "geometry": {"type": "Point", "coordinates": [136.57326196411265, 48.05900563493458]}}, {"type": "Feature", "properties": {"norad_id": 30302, "name": "FENGYUN 1C DEB", "group": "fengyun-1c-debris", "lat": 44.907869154406356, "lon": -106.35056427915111, "alt_km": 794.792975168748, "timestamp": "2025-12-20T22:39:10.901822+00:00", "meta": {"OBJECT_NAME": "FENGYUN 1C DEB", "OBJECT_ID": "1999-025ZP", "EPOCH": "2025-12-18T05:51:11.231136", "MEAN_MOTION": 14.1284744, "ECCENTRICITY": 0.0105226, "INCLINATION": 98.554, "RA_OF_ASC_NODE": 259.6981, "ARG_OF_PERICENTER": 101.7934, "MEAN_ANOMALY": 259.5065, "EPHEMERIS_TYPE": 0, "CLASSIFICATION_TYPE": "U", "NORAD_CAT_ID": 30302, "ELEMENT_SET_NO": 999, "REV_AT_EPOCH": 96121, "BSTAR": 0.0018248401, "MEAN_MOTION_DOT": 3.537e-05, "MEAN_MOTION_DDOT": 0}, "tle": {"line1": "1 30302U 99025ZP  25352.24387999  .00003537  00000+0  18248-2 0  9993", "line2": "2 30302  98.5540 259.6981 0105226 101.7934 259.5065 14.12847440961218"}}, "geometry": {"type": "Point", "coordinates": [-106.35056427915111, 44.907869154406356]}}, {"type": "Feature", "properties": {"norad_id": 30303, "name": "FENGYUN 1C DEB", "group": "fengyun-1c-debris", "lat": 16.14250444198761, "lon": 69.8499263124491, "alt_km": 831.376477296224, "timestamp": "2025-12-20T22:39:10.901831+00:00", "meta": {"OBJECT_NAME": "FENGYUN 1C DEB", "OBJECT_ID": "1999-025ZQ", "EPOCH": "2025-12-19T04:28:26.075424", "MEAN_MOTION": 14.25895485, "ECCENTRICITY": 0.00769653, "INCLINATION": 99.0208, "RA_OF_ASC_NODE": 70.677, "ARG_OF_PERICENTER": 263.8432, "MEAN_ANOMALY": 95.3974, "EPHEMERIS_TYPE": 0, "CLASSIFICATION_TYPE": "U", "NORAD_CAT_ID": 30303, "ELEMENT_SET_NO": 999, "REV_AT_EPOCH": 97127, "BSTAR": 0.0017896087, "MEAN_MOTION_DOT": 4.351e-05, "MEAN_MOTION_DDOT": 0}, "tle": {"line1": "1 30303U 99025ZQ  25353.18641291  .00004351  00000+0  17896-2 0  9999", "line2": "2 30303  99.0208  70.6770 0076965 263.8432  95.3974 14.25895485971271"}}, "geometry": {"type": "Point", "coordinates": [69.8499263124491, 16.14250444198761]}}, {"type": "Feature", "properties": {"norad_id": 30304, "name": "FENGYUN 1C DEB", "group": "fengyun-1c-debris", "lat": -46.81236207749484, "lon": -122.27576715277803, "alt_km": 896.3473910956327, "timestamp": "2025-12-20T22:39:10.901840+00:00", "meta": {"OBJECT_NAME": "FENGYUN 1C DEB", "OBJECT_ID": "1999-025ZR", "EPOCH": "2025-12-18T10:12:26.700192", "MEAN_MOTION": 14.15523113, "ECCENTRICITY": 0.00734007, "INCLINATION": 99.0328, "RA_OF_ASC_NODE": 64.9301, "ARG_OF_PERICENTER": 32.7527, "MEAN_ANOMALY": 327.8165, "EPHEMERIS_TYPE": 0, "CLASSIFICATION_TYPE": "U", "NORAD_CAT_ID": 30304, "ELEMENT_SET_NO": 999, "REV_AT_EPOCH": 96899, "BSTAR": 0.0011981926, "MEAN_MOTION_DOT": 2.359e-05, "MEAN_MOTION_DDOT": 0}, "tle": {"line1": "1 30304U 99025ZR  25352.42530903  .00002359  00000+0  11982-2 0  9999", "line2": "2 30304  99.0328  64.9301 0073400  32.7527 327.8165 14.15523113968995"}}, "geometry": {"type": "Point", "coordinates": [-122.27576715277803, -46.81236207749484]}}, {"type": "Feature", "properties": {"norad_id": 30305, "name": "FENGYUN 1C DEB", "group": "fengyun-1c-debris", "lat": 51.754117010581986, "lon": 125.00219864076294, "alt_km": 894.4534807205027, "timestamp": "2025-12-20T22:39:10.901848+00:00", "meta": {"OBJECT_NAME": "FENGYUN 1C DEB", "OBJECT_ID": "1999-025ZS", "EPOCH": "2025-12-20T11:45:40.180032", "MEAN_MOTION": 13.60234276, "ECCENTRICITY": 0.02658396, "INCLINATION": 98.5884, "RA_OF_ASC_NODE": 293.5499, "ARG_OF_PERICENTER": 80.8551, "MEAN_ANOMALY": 343.1351, "EPHEMERIS_TYPE": 0, "CLASSIFICATION_TYPE": "U", "NORAD_CAT_ID": 30305, "ELEMENT_SET_NO": 999, "REV_AT_EPOCH": 93879, "BSTAR": 0.00026365829, "MEAN_MOTION_DOT": 2.15e-06, "MEAN_MOTION_DDOT": 0}, "tle": {"line1": "1 30305U 99025ZS  25354.49004838  .00000215  00000+0  26366-3 0  9994", "line2": "2 30305  98.5884 293.5499 0265839  80.8551 343.1351 13.60234276938796"}}, "geometry": {"type": "Point", "coordinates": [125.00219864076294, 51.754117010581986]}}]}